{"fetched_at":"2026-03-29T16:36:15Z","count":15609,"tles":[{"name":"STARLINK-11674 [DTC]","line1":"1 64327U 25124L   26087.86550921  .00184818  00000+0  14082-2 0  9991","line2":"2 64327  42.9993 273.3232 0002050 269.8058  90.2575 15.70903798 45856","category":"Starlink"}]}