{
  "norad_id": 64327,
  "name": "STARLINK-11674 [DTC]",
  "history": [
    {
      "epoch": "2026-03-28T20:46:19.995744",
      "apogee_km": 357.6932833086821,
      "perigee_km": 354.9321589230249,
      "latitude_deg": -41.68264824290198,
      "longitude_deg": -24.211115840123966,
      "semi_major_axis_km": 6734.449721115853,
      "eccentricity": 0.000205,
      "inclination_deg": 42.9993,
      "raan_deg": 273.3232,
      "arg_perigee_deg": 269.8058,
      "mean_anomaly_deg": 90.2575,
      "mean_motion_rev_day": 15.70903798
    }
  ]
}